{
  "type": "FeatureCollection",
  "features": [
    {
      "type": "Feature",
      "properties": {
        "norad_id": 40894,
        "name": "GAOFEN-9 01",
        "group": "resource",
        "lat": 51.02866074941922,
        "lon": -144.97867395203895,
        "alt_km": 618.0392501621718,
        "timestamp": "2025-12-12T11:38:31.073497+00:00",
        "meta_object_name": "GAOFEN-9 01",
        "meta_object_id": "2015-047A",
        "meta_epoch": "2025-12-12T04:35:16.094400",
        "meta_mean_motion": 14.82420509,
        "meta_eccentricity": 0.0028431,
        "meta_inclination": 97.6546,
        "meta_ra_of_asc_node": 25.1702,
        "meta_arg_of_pericenter": 36.0895,
        "meta_mean_anomaly": 324.2231,
        "meta_ephemeris_type": 0,
        "meta_classification_type": "U",
        "meta_norad_cat_id": 40894,
        "meta_element_set_no": 999,
        "meta_rev_at_epoch": 55248,
        "meta_bstar": 0.00026615,
        "meta_mean_motion_dot": 2.096e-05,
        "meta_mean_motion_ddot": 0,
        "tle_line1": "1 40894U 15047A   25346.19115850  .00002096  00000+0  26615-3 0  9991",
        "tle_line2": "2 40894  97.6546  25.1702 0028431  36.0895 324.2231 14.82420509552486"
      },
      "geometry": {
        "type": "Point",
        "coordinates": [
          -144.97867395203895,
          51.02866074941922
        ]
      }
    },
    {
      "type": "Feature",
      "properties": {
        "norad_id": 41026,
        "name": "YAOGAN-28",
        "group": "resource",
        "lat": -60.29985283439687,
        "lon": -68.66774885058796,
        "alt_km": 503.44674450330695,
        "timestamp": "2025-12-12T11:38:31.073507+00:00",
        "meta_object_name": "YAOGAN-28",
        "meta_object_id": "2015-064A",
        "meta_epoch": "2025-12-12T04:17:12.305760",
        "meta_mean_motion": 15.24338122,
        "meta_eccentricity": 0.0012393,
        "meta_inclination": 97.2804,
        "meta_ra_of_asc_node": 123.9865,
        "meta_arg_of_pericenter": 127.748,
        "meta_mean_anomaly": 232.4882,
        "meta_ephemeris_type": 0,
        "meta_classification_type": "U",
        "meta_norad_cat_id": 41026,
        "meta_element_set_no": 999,
        "meta_rev_at_epoch": 56216,
        "meta_bstar": 0.00048784,
        "meta_mean_motion_dot": 0.00011899,
        "meta_mean_motion_ddot": 0,
        "tle_line1": "1 41026U 15064A   25346.17861465  .00011899  00000+0  48784-3 0  9998",
        "tle_line2": "2 41026  97.2804 123.9865 0012393 127.7480 232.4882 15.24338122562166"
      },
      "geometry": {
        "type": "Point",
        "coordinates": [
          -68.66774885058796,
          -60.29985283439687
        ]
      }
    },
    {
      "type": "Feature",
      "properties": {
        "norad_id": 41038,
        "name": "YAOGAN-29",
        "group": "resource",
        "lat": 15.066137467140956,
        "lon": 7.480016581739545,
        "alt_km": 621.0063024180117,
        "timestamp": "2025-12-12T11:38:31.073517+00:00",
        "meta_object_name": "YAOGAN-29",
        "meta_object_id": "2015-069A",
        "meta_epoch": "2025-12-12T05:05:44.555136",
        "meta_mean_motion": 14.82880091,
        "meta_eccentricity": 2.6e-05,
        "meta_inclination": 98.022,
        "meta_ra_of_asc_node": 9.382,
        "meta_arg_of_pericenter": 321.568,
        "meta_mean_anomaly": 38.5515,
        "meta_ephemeris_type": 0,
        "meta_classification_type": "U",
        "meta_norad_cat_id": 41038,
        "meta_element_set_no": 999,
        "meta_rev_at_epoch": 54291,
        "meta_bstar": 7.5148e-05,
        "meta_mean_motion_dot": 5.55e-06,
        "meta_mean_motion_ddot": 0,
        "tle_line1": "1 41038U 15069A   25346.21232124  .00000555  00000+0  75148-4 0  9997",
        "tle_line2": "2 41038  98.0220   9.3820 0000260 321.5680  38.5515 14.82880091542913"
      },
      "geometry": {
        "type": "Point",
        "coordinates": [
          7.480016581739545,
          15.066137467140956
        ]
      }
    },
    {
      "type": "Feature",
      "properties": {
        "norad_id": 41167,
        "name": "KENT RIDGE 1",
        "group": "resource",
        "lat": -9.182903166875477,
        "lon": 70.238319021781,
        "alt_km": 499.3656344388446,
        "timestamp": "2025-12-12T11:38:31.073528+00:00",
        "meta_object_name": "KENT RIDGE 1",
        "meta_object_id": "2015-077B",
        "meta_epoch": "2025-12-11T22:06:14.080320",
        "meta_mean_motion": 15.21626182,
        "meta_eccentricity": 0.0008513,
        "meta_inclination": 14.9787,
        "meta_ra_of_asc_node": 217.2158,
        "meta_arg_of_pericenter": 119.1546,
        "meta_mean_anomaly": 240.9628,
        "meta_ephemeris_type": 0,
        "meta_classification_type": "U",
        "meta_norad_cat_id": 41167,
        "meta_element_set_no": 999,
        "meta_rev_at_epoch": 55251,
        "meta_bstar": 0.00026336,
        "meta_mean_motion_dot": 6.894e-05,
        "meta_mean_motion_ddot": 0,
        "tle_line1": "1 41167U 15077B   25345.92099630  .00006894  00000+0  26336-3 0  9995",
        "tle_line2": "2 41167  14.9787 217.2158 0008513 119.1546 240.9628 15.21626182552510"
      },
      "geometry": {
        "type": "Point",
        "coordinates": [
          70.238319021781,
          -9.182903166875477
        ]
      }
    },
    {
      "type": "Feature",
      "properties": {
        "norad_id": 41194,
        "name": "GAOFEN-4",
        "group": "resource",
        "lat": -0.15748809928061405,
        "lon": 1.7515865181473211,
        "alt_km": 35801.40942821283,
        "timestamp": "2025-12-12T11:38:31.073541+00:00",
        "meta_object_name": "GAOFEN-4",
        "meta_object_id": "2015-083A",
        "meta_epoch": "2025-12-12T00:17:15.177408",
        "meta_mean_motion": 1.00269789,
        "meta_eccentricity": 0.000351,
        "meta_inclination": 0.1688,
        "meta_ra_of_asc_node": 80.9919,
        "meta_arg_of_pericenter": 106.4095,
        "meta_mean_anomaly": 3.5726,
        "meta_ephemeris_type": 0,
        "meta_classification_type": "U",
        "meta_norad_cat_id": 41194,
        "meta_element_set_no": 999,
        "meta_rev_at_epoch": 3665,
        "meta_bstar": 0,
        "meta_mean_motion_dot": -3.26e-06,
        "meta_mean_motion_ddot": 0,
        "tle_line1": "1 41194U 15083A   25346.01198122 -.00000326  00000+0  00000+0 0  9990",
        "tle_line2": "2 41194   0.1688  80.9919 0003510 106.4095   3.5726  1.00269789 36659"
      },
      "geometry": {
        "type": "Point",
        "coordinates": [
          1.7515865181473211,
          -0.15748809928061405
        ]
      }
    },
    {
      "type": "Feature",
      "properties": {
        "norad_id": 41240,
        "name": "JASON-3",
        "group": "resource",
        "lat": -28.212250339454407,
        "lon": -7.839372535233608,
        "alt_km": 1312.9902468820237,
        "timestamp": "2025-12-12T11:38:31.073552+00:00",
        "meta_object_name": "JASON-3",
        "meta_object_id": "2016-002A",
        "meta_epoch": "2025-12-12T03:05:32.990784",
        "meta_mean_motion": 12.87626492,
        "meta_eccentricity": 0.0007135,
        "meta_inclination": 66.0389,
        "meta_ra_of_asc_node": 159.1085,
        "meta_arg_of_pericenter": 270.7955,
        "meta_mean_anomaly": 89.2246,
        "meta_ephemeris_type": 0,
        "meta_classification_type": "U",
        "meta_norad_cat_id": 41240,
        "meta_element_set_no": 999,
        "meta_rev_at_epoch": 46316,
        "meta_bstar": 9.7374e-05,
        "meta_mean_motion_dot": -3.8e-07,
        "meta_mean_motion_ddot": 0,
        "tle_line1": "1 41240U 16002A   25346.12885406 -.00000038  00000+0  97374-4 0  9999",
        "tle_line2": "2 41240  66.0389 159.1085 0007135 270.7955  89.2246 12.87626492463163"
      },
      "geometry": {
        "type": "Point",
        "coordinates": [
          -7.839372535233608,
          -28.212250339454407
        ]
      }
    },
    {
      "type": "Feature",
      "properties": {
        "norad_id": 41335,
        "name": "SENTINEL-3A",
        "group": "resource",
        "lat": 53.10055525946048,
        "lon": -116.82740794462012,
        "alt_km": 797.1224699475615,
        "timestamp": "2025-12-12T11:38:31.073562+00:00",
        "meta_object_name": "SENTINEL-3A",
        "meta_object_id": "2016-011A",
        "meta_epoch": "2025-12-12T04:19:16.444416",
        "meta_mean_motion": 14.26730412,
        "meta_eccentricity": 9.45e-05,
        "meta_inclination": 98.6316,
        "meta_ra_of_asc_node": 51.1996,
        "meta_arg_of_pericenter": 89.9977,
        "meta_mean_anomaly": 270.1311,
        "meta_ephemeris_type": 0,
        "meta_classification_type": "U",
        "meta_norad_cat_id": 41335,
        "meta_element_set_no": 999,
        "meta_rev_at_epoch": 51139,
        "meta_bstar": 0.00013325,
        "meta_mean_motion_dot": 2.79e-06,
        "meta_mean_motion_ddot": 0,
        "tle_line1": "1 41335U 16011A   25346.18005144  .00000279  00000+0  13325-3 0  9992",
        "tle_line2": "2 41335  98.6316  51.1996 0000945  89.9977 270.1311 14.26730412511393"
      },
      "geometry": {
        "type": "Point",
        "coordinates": [
          -116.82740794462012,
          53.10055525946048
        ]
      }
    }
  ]
}